OBJECT_NAME,OBJECT_ID,EPOCH,MEAN_MOTION,ECCENTRICITY,INCLINATION,RA_OF_ASC_NODE,ARG_OF_PERICENTER,MEAN_ANOMALY,EPHEMERIS_TYPE,CLASSIFICATION_TYPE,NORAD_CAT_ID,ELEMENT_SET_NO,REV_AT_EPOCH,BSTAR,MEAN_MOTION_DOT,MEAN_MOTION_DDOT
STARLINK-37979,2026-145N,2026-06-30T20:00:01.999008,15.87915129,.000144,97.2868,27.9644,89.3621,358.9443,0,U,69689,999,212,-.10274E-1,-.2336603E-1,0
STARLINK-37940,2026-145P,2026-06-30T20:00:01.999008,15.88459816,.000143,97.2867,27.9672,85.8532,8.4254,0,U,69690,999,212,-.10054E-1,-.2347732E-1,0
STARLINK-37961,2026-145Q,2026-06-30T20:00:01.999008,15.88981071,.0001484,97.2868,27.9695,88.0434,11.9929,0,U,69691,999,212,-.9744E-2,-.2338145E-1,0
STARLINK-37787,2026-145R,2026-06-30T20:00:01.999008,15.89391316,.0001453,97.2867,27.9722,86.4528,20.2893,0,U,69692,999,212,-.9493E-2,-.2704669E-1,.18941E-2
STARLINK-37962,2026-145S,2026-06-30T20:00:01.999008,15.89410388,.0001471,97.2868,27.9721,88.8069,17.1802,0,U,69693,999,212,-.95013E-2,-.2709596E-1,.19013E-2
STARLINK-37953,2026-145T,2026-06-30T20:00:01.999008,15.89365564,.000149,97.2868,27.9725,89.4536,18.1929,0,U,69694,999,212,-.95654E-2,-.2721737E-1,.19172E-2
STARLINK-37926,2026-145U,2026-06-30T20:00:01.999008,15.89514469,.0001514,97.2870,27.9741,88.8842,21.1045,0,U,69695,999,212,-.94886E-2,-.2720062E-1,.19181E-2
STARLINK-37959,2026-145V,2026-06-30T20:00:01.999008,15.89530413,.0001543,97.2869,27.9738,87.5103,23.3641,0,U,69696,999,212,-.94721E-2,-.2717519E-1,.19149E-2
STARLINK-37976,2026-145W,2026-06-30T20:00:01.999008,15.90272838,.0001514,97.2872,27.9781,88.1873,31.0529,0,U,69697,999,212,-.90489E-2,-.2694823E-1,.1899E-2
STARLINK-37912,2026-145X,2026-06-30T20:00:01.999008,15.90663594,.0001591,97.2872,27.9800,86.4425,37.3622,0,U,69698,999,212,-.89322E-2,-.2713102E-1,.19331E-2
STARLINK-37974,2026-145Y,2026-06-30T20:00:01.999008,15.90795928,.0001589,97.2872,27.9810,85.7461,40.3469,0,U,69699,999,212,-.88346E-2,-.2701535E-1,.19197E-2
STARLINK-37955,2026-145Z,2026-06-30T20:00:01.999008,15.91695982,.0001541,97.2875,27.9848,91.0522,44.0852,0,U,69700,999,212,-.84555E-2,-.2707003E-1,.19474E-2
